STARLINK-35463          
1 66463U 25262H   25341.00002315 -.00125880  00000+0 -21706-2 0  9991
2 66463  43.0009 104.6577 0001574 266.6288  59.6567 15.50629601  4713
STARLINK-35435          
1 66464U 25262J   25341.00002315 -.00134443  00000+0 -23207-2 0  9995
2 66464  43.0009 104.6633 0001452 265.0231  59.3430 15.50635337  4712
STARLINK-35448          
1 66465U 25262K   25341.00002315 -.00147611  00000+0 -25522-2 0  9999
2 66465  43.0009 104.6485 0001614 266.8544  63.2633 15.50641910  4717
STARLINK-35388          
1 66466U 25262L   25341.00002315 -.00149244  00000+0 -25809-2 0  9992
2 66466  43.0008 104.6423 0001525 266.1987  65.8357 15.50643023  4712
STARLINK-35682          
1 66467U 25262M   25341.00002315 -.00167819  00000+0 -29086-2 0  9992
2 66467  43.0009 104.6536 0001658 265.0433  63.1512 15.50653760  4713
STARLINK-35331          
1 66468U 25262N   25341.00002315 -.00147253  00000+0 -25459-2 0  9993
2 66468  43.0009 104.6383 0001601 263.7106  70.2413 15.50641175  4710
STARLINK-35451          
1 66469U 25262P   25341.00002315 -.00101233  00000+0 -17399-2 0  9996
2 66469  43.0008 104.6234 0001408 269.2363  70.4727 15.50615348  4719
STARLINK-35655          
1 66470U 25262Q   25341.00002315 -.00065769  00000+0 -11252-2 0  9993
2 66470  43.0007 104.6334 0001604 273.5015  62.4401 15.50564759  4710
STARLINK-35569          
1 66471U 25262R   25341.00002315 -.00145718  00000+0 -25190-2 0  9993
2 66471  43.0007 104.6286 0001390 264.4787  73.3066 15.50640344  4717
STARLINK-35567          
1 66472U 25262S   25341.00002315 -.00150534  00000+0 -26035-2 0  9995
2 66472  43.0008 104.6185 0001533 267.0869  74.5295 15.50645101  4719
STARLINK-35568          
1 66473U 25262T   25341.00002315 -.00136542  00000+0 -23575-2 0  9995
2 66473  43.0008 104.6137 0001574 268.9654  74.5713 15.50636363  4719
STARLINK-35620          
1 66474U 25262U   25341.00002315 -.00254505  00000+0 -44534-2 0  9994
2 66474  43.0008 104.6090 0001519 266.6792  78.7411 15.50712883  4718
