CCSDS_OMM_VERS = 2.0
CREATION_DATE  = 
ORIGINATOR     = 

OBJECT_NAME    = STARLINK-35463
OBJECT_ID      = 2025-262H
CENTER_NAME    = EARTH
REF_FRAME      = TEME
TIME_SYSTEM    = UTC
MEAN_ELEMENT_THEORY = SGP/SGP4

EPOCH          = 2025-12-07T00:00:02.000160
MEAN_MOTION    = 15.50629601
ECCENTRICITY   = .0001574
INCLINATION    = 43.0009
RA_OF_ASC_NODE = 104.6577
ARG_OF_PERICENTER = 266.6288
MEAN_ANOMALY   = 59.6567

EPHEMERIS_TYPE = 0
CLASSIFICATION_TYPE = U
NORAD_CAT_ID   = 66463
ELEMENT_SET_NO = 999
REV_AT_EPOCH   = 471
BSTAR          = -.21705605E-2
MEAN_MOTION_DOT = -.12588E-2
MEAN_MOTION_DDOT = 0

CCSDS_OMM_VERS = 2.0
CREATION_DATE  = 
ORIGINATOR     = 

OBJECT_NAME    = STARLINK-35435
OBJECT_ID      = 2025-262J
CENTER_NAME    = EARTH
REF_FRAME      = TEME
TIME_SYSTEM    = UTC
MEAN_ELEMENT_THEORY = SGP/SGP4

EPOCH          = 2025-12-07T00:00:02.000160
MEAN_MOTION    = 15.50635337
ECCENTRICITY   = .0001452
INCLINATION    = 43.0009
RA_OF_ASC_NODE = 104.6633
ARG_OF_PERICENTER = 265.0231
MEAN_ANOMALY   = 59.3430

EPHEMERIS_TYPE = 0
CLASSIFICATION_TYPE = U
NORAD_CAT_ID   = 66464
ELEMENT_SET_NO = 999
REV_AT_EPOCH   = 471
BSTAR          = -.23206791E-2
MEAN_MOTION_DOT = -.134443E-2
MEAN_MOTION_DDOT = 0

CCSDS_OMM_VERS = 2.0
CREATION_DATE  = 
ORIGINATOR     = 

OBJECT_NAME    = STARLINK-35448
OBJECT_ID      = 2025-262K
CENTER_NAME    = EARTH
REF_FRAME      = TEME
TIME_SYSTEM    = UTC
MEAN_ELEMENT_THEORY = SGP/SGP4

EPOCH          = 2025-12-07T00:00:02.000160
MEAN_MOTION    = 15.50641910
ECCENTRICITY   = .00016141
INCLINATION    = 43.0009
RA_OF_ASC_NODE = 104.6485
ARG_OF_PERICENTER = 266.8544
MEAN_ANOMALY   = 63.2633

EPHEMERIS_TYPE = 0
CLASSIFICATION_TYPE = U
NORAD_CAT_ID   = 66465
ELEMENT_SET_NO = 999
REV_AT_EPOCH   = 471
BSTAR          = -.25521679E-2
MEAN_MOTION_DOT = -.147611E-2
MEAN_MOTION_DDOT = 0

CCSDS_OMM_VERS = 2.0
CREATION_DATE  = 
ORIGINATOR     = 

OBJECT_NAME    = STARLINK-35388
OBJECT_ID      = 2025-262L
CENTER_NAME    = EARTH
REF_FRAME      = TEME
TIME_SYSTEM    = UTC
MEAN_ELEMENT_THEORY = SGP/SGP4

EPOCH          = 2025-12-07T00:00:02.000160
MEAN_MOTION    = 15.50643023
ECCENTRICITY   = .00015256
INCLINATION    = 43.0008
RA_OF_ASC_NODE = 104.6423
ARG_OF_PERICENTER = 266.1987
MEAN_ANOMALY   = 65.8357

EPHEMERIS_TYPE = 0
CLASSIFICATION_TYPE = U
NORAD_CAT_ID   = 66466
ELEMENT_SET_NO = 999
REV_AT_EPOCH   = 471
BSTAR          = -.25809296E-2
MEAN_MOTION_DOT = -.149244E-2
MEAN_MOTION_DDOT = 0

CCSDS_OMM_VERS = 2.0
CREATION_DATE  = 
ORIGINATOR     = 

OBJECT_NAME    = STARLINK-35682
OBJECT_ID      = 2025-262M
CENTER_NAME    = EARTH
REF_FRAME      = TEME
TIME_SYSTEM    = UTC
MEAN_ELEMENT_THEORY = SGP/SGP4

EPOCH          = 2025-12-07T00:00:02.000160
MEAN_MOTION    = 15.50653760
ECCENTRICITY   = .0001658
INCLINATION    = 43.0009
RA_OF_ASC_NODE = 104.6536
ARG_OF_PERICENTER = 265.0433
MEAN_ANOMALY   = 63.1512

EPHEMERIS_TYPE = 0
CLASSIFICATION_TYPE = U
NORAD_CAT_ID   = 66467
ELEMENT_SET_NO = 999
REV_AT_EPOCH   = 471
BSTAR          = -.29085721E-2
MEAN_MOTION_DOT = -.167819E-2
MEAN_MOTION_DDOT = 0

CCSDS_OMM_VERS = 2.0
CREATION_DATE  = 
ORIGINATOR     = 

OBJECT_NAME    = STARLINK-35331
OBJECT_ID      = 2025-262N
CENTER_NAME    = EARTH
REF_FRAME      = TEME
TIME_SYSTEM    = UTC
MEAN_ELEMENT_THEORY = SGP/SGP4

EPOCH          = 2025-12-07T00:00:02.000160
MEAN_MOTION    = 15.50641175
ECCENTRICITY   = .00016019
INCLINATION    = 43.0009
RA_OF_ASC_NODE = 104.6383
ARG_OF_PERICENTER = 263.7106
MEAN_ANOMALY   = 70.2413

EPHEMERIS_TYPE = 0
CLASSIFICATION_TYPE = U
NORAD_CAT_ID   = 66468
ELEMENT_SET_NO = 999
REV_AT_EPOCH   = 471
BSTAR          = -.25459221E-2
MEAN_MOTION_DOT = -.147253E-2
MEAN_MOTION_DDOT = 0

CCSDS_OMM_VERS = 2.0
CREATION_DATE  = 
ORIGINATOR     = 

OBJECT_NAME    = STARLINK-35451
OBJECT_ID      = 2025-262P
CENTER_NAME    = EARTH
REF_FRAME      = TEME
TIME_SYSTEM    = UTC
MEAN_ELEMENT_THEORY = SGP/SGP4

EPOCH          = 2025-12-07T00:00:02.000160
MEAN_MOTION    = 15.50615348
ECCENTRICITY   = .00014084
INCLINATION    = 43.0008
RA_OF_ASC_NODE = 104.6234
ARG_OF_PERICENTER = 269.2363
MEAN_ANOMALY   = 70.4727

EPHEMERIS_TYPE = 0
CLASSIFICATION_TYPE = U
NORAD_CAT_ID   = 66469
ELEMENT_SET_NO = 999
REV_AT_EPOCH   = 471
BSTAR          = -.17398773E-2
MEAN_MOTION_DOT = -.101233E-2
MEAN_MOTION_DDOT = 0

CCSDS_OMM_VERS = 2.0
CREATION_DATE  = 
ORIGINATOR     = 

OBJECT_NAME    = STARLINK-35655
OBJECT_ID      = 2025-262Q
CENTER_NAME    = EARTH
REF_FRAME      = TEME
TIME_SYSTEM    = UTC
MEAN_ELEMENT_THEORY = SGP/SGP4

EPOCH          = 2025-12-07T00:00:02.000160
MEAN_MOTION    = 15.50564759
ECCENTRICITY   = .00016041
INCLINATION    = 43.0007
RA_OF_ASC_NODE = 104.6334
ARG_OF_PERICENTER = 273.5015
MEAN_ANOMALY   = 62.4401

EPHEMERIS_TYPE = 0
CLASSIFICATION_TYPE = U
NORAD_CAT_ID   = 66470
ELEMENT_SET_NO = 999
REV_AT_EPOCH   = 471
BSTAR          = -.11252225E-2
MEAN_MOTION_DOT = -.65769E-3
MEAN_MOTION_DDOT = 0

CCSDS_OMM_VERS = 2.0
CREATION_DATE  = 
ORIGINATOR     = 

OBJECT_NAME    = STARLINK-35569
OBJECT_ID      = 2025-262R
CENTER_NAME    = EARTH
REF_FRAME      = TEME
TIME_SYSTEM    = UTC
MEAN_ELEMENT_THEORY = SGP/SGP4

EPOCH          = 2025-12-07T00:00:02.000160
MEAN_MOTION    = 15.50640344
ECCENTRICITY   = .00013907
INCLINATION    = 43.0007
RA_OF_ASC_NODE = 104.6286
ARG_OF_PERICENTER = 264.4787
MEAN_ANOMALY   = 73.3066

EPHEMERIS_TYPE = 0
CLASSIFICATION_TYPE = U
NORAD_CAT_ID   = 66471
ELEMENT_SET_NO = 999
REV_AT_EPOCH   = 471
BSTAR          = -.25189639E-2
MEAN_MOTION_DOT = -.145718E-2
MEAN_MOTION_DDOT = 0

CCSDS_OMM_VERS = 2.0
CREATION_DATE  = 
ORIGINATOR     = 

OBJECT_NAME    = STARLINK-35567
OBJECT_ID      = 2025-262S
CENTER_NAME    = EARTH
REF_FRAME      = TEME
TIME_SYSTEM    = UTC
MEAN_ELEMENT_THEORY = SGP/SGP4

EPOCH          = 2025-12-07T00:00:02.000160
MEAN_MOTION    = 15.50645101
ECCENTRICITY   = .00015334
INCLINATION    = 43.0008
RA_OF_ASC_NODE = 104.6185
ARG_OF_PERICENTER = 267.0869
MEAN_ANOMALY   = 74.5295

EPHEMERIS_TYPE = 0
CLASSIFICATION_TYPE = U
NORAD_CAT_ID   = 66472
ELEMENT_SET_NO = 999
REV_AT_EPOCH   = 471
BSTAR          = -.26035276E-2
MEAN_MOTION_DOT = -.150534E-2
MEAN_MOTION_DDOT = 0

CCSDS_OMM_VERS = 2.0
CREATION_DATE  = 
ORIGINATOR     = 

OBJECT_NAME    = STARLINK-35568
OBJECT_ID      = 2025-262T
CENTER_NAME    = EARTH
REF_FRAME      = TEME
TIME_SYSTEM    = UTC
MEAN_ELEMENT_THEORY = SGP/SGP4

EPOCH          = 2025-12-07T00:00:02.000160
MEAN_MOTION    = 15.50636363
ECCENTRICITY   = .00015748
INCLINATION    = 43.0008
RA_OF_ASC_NODE = 104.6137
ARG_OF_PERICENTER = 268.9654
MEAN_ANOMALY   = 74.5713

EPHEMERIS_TYPE = 0
CLASSIFICATION_TYPE = U
NORAD_CAT_ID   = 66473
ELEMENT_SET_NO = 999
REV_AT_EPOCH   = 471
BSTAR          = -.23575269E-2
MEAN_MOTION_DOT = -.136542E-2
MEAN_MOTION_DDOT = 0

CCSDS_OMM_VERS = 2.0
CREATION_DATE  = 
ORIGINATOR     = 

OBJECT_NAME    = STARLINK-35620
OBJECT_ID      = 2025-262U
CENTER_NAME    = EARTH
REF_FRAME      = TEME
TIME_SYSTEM    = UTC
MEAN_ELEMENT_THEORY = SGP/SGP4

EPOCH          = 2025-12-07T00:00:02.000160
MEAN_MOTION    = 15.50712883
ECCENTRICITY   = .00015198
INCLINATION    = 43.0008
RA_OF_ASC_NODE = 104.6090
ARG_OF_PERICENTER = 266.6792
MEAN_ANOMALY   = 78.7411

EPHEMERIS_TYPE = 0
CLASSIFICATION_TYPE = U
NORAD_CAT_ID   = 66474
ELEMENT_SET_NO = 999
REV_AT_EPOCH   = 471
BSTAR          = -.44533585E-2
MEAN_MOTION_DOT = -.254505E-2
MEAN_MOTION_DDOT = 0

